ONEWEB-0229             
1 48779U 21045N   24192.10888318  .00000144  00000+0  34852-3 0  9995
2 48779  87.9019  39.9084 0001947  82.0735 278.0616 13.15548175152570
ONEWEB-0228             
1 48780U 21045P   24191.59909562 -.00000096  00000+0 -29101-3 0  9993
2 48780  87.9017  39.9881 0001865  81.2606 278.8735 13.15069764151292
ONEWEB-0231             
1 48782U 21045R   24192.09461572  .00000154  00000+0  37498-3 0  9996
2 48782  87.9028  39.9396 0001930  76.3184 283.8161 13.15547327152517
ONEWEB-0234             
1 48783U 21045S   24191.65807199  .00000112  00000+0  26232-3 0  9995
2 48783  87.9020  39.9841 0000872 129.2364 230.8844 13.15547475151453
ONEWEB-0238             
1 48784U 21045T   24191.61211744 -.00000084  00000+0 -25793-3 0  9998
2 48784  87.9018  40.0108 0001696  87.4559 272.6765 13.15544177152471
ONEWEB-0240             
1 48785U 21045U   24192.07797707 -.00000023  00000+0 -95410-4 0  9995
2 48785  87.9018  39.8853 0001687  71.2185 288.9128 13.15547384152556
ONEWEB-0246             
1 48786U 21045V   24191.61608398 -.00000100  00000+0 -29907-3 0  9995
2 48786  87.9019  39.9822 0001998  82.3813 277.7544 13.15547065152364
